ALOS-4 (DAICHI-4)       
1 60182U 24123A   24212.54985926  .00004379  00000+0  59256-3 0  9990
2 60182  97.9214 308.5913 0001614 110.9658 249.1726 14.79493774  4350
